{"type": "FeatureCollection", "features": [{"type": "Feature", "properties": {"norad_id": 25590, "name": "COSMOS 2361", "group": "musson", "lat": -8.422559818209251, "lon": 170.01386448203877, "alt_km": 994.4168268935027, "timestamp": "2025-12-06T03:35:02.140557+00:00", "meta": {"OBJECT_NAME": "COSMOS 2361", "OBJECT_ID": "1998-076A", "EPOCH": "2025-12-05T07:28:54.971904", "MEAN_MOTION": 13.73216242, "ECCENTRICITY": 0.00301222, "INCLINATION": 82.934, "RA_OF_ASC_NODE": 349.5808, "ARG_OF_PERICENTER": 287.1882, "MEAN_ANOMALY": 83.1984, "EPHEMERIS_TYPE": 0, "CLASSIFICATION_TYPE": "U", "NORAD_CAT_ID": 25590, "ELEMENT_SET_NO": 999, "REV_AT_EPOCH": 35009, "BSTAR": 8.701016e-05, "MEAN_MOTION_DOT": 9.6e-07, "MEAN_MOTION_DDOT": 0}, "tle": {"line1": "1 25590U 98076A   25339.31174736  .00000096  00000+0  87010-4 0  9999", "line2": "2 25590  82.9340 349.5808 0030122 287.1882  83.1984 13.73216242350091"}}, "geometry": {"type": "Point", "coordinates": [170.01386448203877, -8.422559818209251]}}, {"type": "Feature", "properties": {"norad_id": 26818, "name": "COSMOS 2378", "group": "musson", "lat": -58.861135800996145, "lon": -163.53060457676335, "alt_km": 969.1734380005482, "timestamp": "2025-12-06T03:35:02.140594+00:00", "meta": {"OBJECT_NAME": "COSMOS 2378", "OBJECT_ID": "2001-023A", "EPOCH": "2025-12-05T04:00:49.451328", "MEAN_MOTION": 13.74141149, "ECCENTRICITY": 0.00320003, "INCLINATION": 82.9279, "RA_OF_ASC_NODE": 5.3402, "ARG_OF_PERICENTER": 226.488, "MEAN_ANOMALY": 197.365, "EPHEMERIS_TYPE": 0, "CLASSIFICATION_TYPE": "U", "NORAD_CAT_ID": 26818, "ELEMENT_SET_NO": 999, "REV_AT_EPOCH": 22819, "BSTAR": 9.7506985e-05, "MEAN_MOTION_DOT": 1.07e-06, "MEAN_MOTION_DDOT": 0}, "tle": {"line1": "1 26818U 01023A   25339.16723902  .00000107  00000+0  97507-4 0  9992", "line2": "2 26818  82.9279   5.3402 0032000 226.4880 197.3650 13.74141149228191"}}, "geometry": {"type": "Point", "coordinates": [-163.53060457676335, -58.861135800996145]}}, {"type": "Feature", "properties": {"norad_id": 27436, "name": "COSMOS 2389", "group": "musson", "lat": 61.35741112081308, "lon": -35.039897688294175, "alt_km": 941.4202418381728, "timestamp": "2025-12-06T03:35:02.140609+00:00", "meta": {"OBJECT_NAME": "COSMOS 2389", "OBJECT_ID": "2002-026A", "EPOCH": "2025-12-05T06:53:58.226208", "MEAN_MOTION": 13.75153392, "ECCENTRICITY": 0.00477566, "INCLINATION": 82.9495, "RA_OF_ASC_NODE": 312.5021, "ARG_OF_PERICENTER": 80.9916, "MEAN_ANOMALY": 37.1473, "EPHEMERIS_TYPE": 0, "CLASSIFICATION_TYPE": "U", "NORAD_CAT_ID": 27436, "ELEMENT_SET_NO": 999, "REV_AT_EPOCH": 18046, "BSTAR": 6.8451198e-05, "MEAN_MOTION_DOT": 8.2e-07, "MEAN_MOTION_DDOT": 0}, "tle": {"line1": "1 27436U 02026A   25339.28747947  .00000082  00000+0  68451-4 0  9999", "line2": "2 27436  82.9495 312.5021 0047756  80.9916  37.1473 13.75153392180460"}}, "geometry": {"type": "Point", "coordinates": [-35.039897688294175, 61.35741112081308]}}, {"type": "Feature", "properties": {"norad_id": 27818, "name": "COSMOS 2398", "group": "musson", "lat": 78.06643802300307, "lon": -46.591775614393846, "alt_km": 968.0996835035003, "timestamp": "2025-12-06T03:35:02.140621+00:00", "meta": {"OBJECT_NAME": "COSMOS 2398", "OBJECT_ID": "2003-023A", "EPOCH": "2025-12-05T06:44:35.668032", "MEAN_MOTION": 13.7238464, "ECCENTRICITY": 0.00322932, "INCLINATION": 82.9477, "RA_OF_ASC_NODE": 278.195, "ARG_OF_PERICENTER": 131.8333, "MEAN_ANOMALY": 341.0113, "EPHEMERIS_TYPE": 0, "CLASSIFICATION_TYPE": "U", "NORAD_CAT_ID": 27818, "ELEMENT_SET_NO": 999, "REV_AT_EPOCH": 12714, "BSTAR": 7.6904641e-05, "MEAN_MOTION_DOT": 8.6e-07, "MEAN_MOTION_DDOT": 0}, "tle": {"line1": "1 27818U 03023A   25339.28096838  .00000086  00000+0  76905-4 0  9994", "line2": "2 27818  82.9477 278.1950 0032293 131.8333 341.0113 13.72384640127144"}}, "geometry": {"type": "Point", "coordinates": [-46.591775614393846, 78.06643802300307]}}, {"type": "Feature", "properties": {"norad_id": 28380, "name": "COSMOS 2407", "group": "musson", "lat": -3.8331686729436734, "lon": 38.24609209759514, "alt_km": 991.0068299376753, "timestamp": "2025-12-06T03:35:02.140632+00:00", "meta": {"OBJECT_NAME": "COSMOS 2407", "OBJECT_ID": "2004-028A", "EPOCH": "2025-12-05T04:33:41.464800", "MEAN_MOTION": 13.76312403, "ECCENTRICITY": 0.00404995, "INCLINATION": 82.9614, "RA_OF_ASC_NODE": 218.482, "ARG_OF_PERICENTER": 75.3218, "MEAN_ANOMALY": 37.7698, "EPHEMERIS_TYPE": 0, "CLASSIFICATION_TYPE": "U", "NORAD_CAT_ID": 28380, "ELEMENT_SET_NO": 999, "REV_AT_EPOCH": 7319, "BSTAR": 0.00010977847, "MEAN_MOTION_DOT": 1.23e-06, "MEAN_MOTION_DDOT": 0}, "tle": {"line1": "1 28380U 04028A   25339.19006325  .00000123  00000+0  10978-3 0  9996", "line2": "2 28380  82.9614 218.4820 0040499  75.3218  37.7698 13.76312403 73190"}}, "geometry": {"type": "Point", "coordinates": [38.24609209759514, -3.8331686729436734]}}, {"type": "Feature", "properties": {"norad_id": 28521, "name": "COSMOS 2414", "group": "musson", "lat": 7.551862440792601, "lon": 8.703033362689004, "alt_km": 909.188342629509, "timestamp": "2025-12-06T03:35:02.140643+00:00", "meta": {"OBJECT_NAME": "COSMOS 2414", "OBJECT_ID": "2005-002A", "EPOCH": "2025-12-05T02:32:05.037504", "MEAN_MOTION": 13.87901518, "ECCENTRICITY": 0.00404254, "INCLINATION": 82.9499, "RA_OF_ASC_NODE": 190.4323, "ARG_OF_PERICENTER": 161.1372, "MEAN_ANOMALY": 199.13, "EPHEMERIS_TYPE": 0, "CLASSIFICATION_TYPE": "U", "NORAD_CAT_ID": 28521, "ELEMENT_SET_NO": 999, "REV_AT_EPOCH": 5689, "BSTAR": 0.00010537939, "MEAN_MOTION_DOT": 1.42e-06, "MEAN_MOTION_DDOT": 0}, "tle": {"line1": "1 28521U 05002A   25339.10561386  .00000142  00000+0  10538-3 0  9993", "line2": "2 28521  82.9499 190.4323 0040425 161.1372 199.1300 13.87901518 56893"}}, "geometry": {"type": "Point", "coordinates": [8.703033362689004, 7.551862440792601]}}, {"type": "Feature", "properties": {"norad_id": 32052, "name": "COSMOS 2429", "group": "musson", "lat": -67.25405350177887, "lon": -174.74199799306783, "alt_km": 1016.8266564085925, "timestamp": "2025-12-06T03:35:02.140655+00:00", "meta": {"OBJECT_NAME": "COSMOS 2429", "OBJECT_ID": "2007-038A", "EPOCH": "2025-12-05T07:10:22.268640", "MEAN_MOTION": 13.75148277, "ECCENTRICITY": 0.00395595, "INCLINATION": 82.9804, "RA_OF_ASC_NODE": 348.7947, "ARG_OF_PERICENTER": 58.1059, "MEAN_ANOMALY": 302.3937, "EPHEMERIS_TYPE": 0, "CLASSIFICATION_TYPE": "U", "NORAD_CAT_ID": 32052, "ELEMENT_SET_NO": 999, "REV_AT_EPOCH": 91500, "BSTAR": 7.1141468e-05, "MEAN_MOTION_DOT": 8.4e-07, "MEAN_MOTION_DDOT": 0}, "tle": {"line1": "1 32052U 07038A   25339.29886885  .00000084  00000+0  71141-4 0  9995", "line2": "2 32052  82.9804 348.7947 0039559  58.1059 302.3937 13.75148277915003"}}, "geometry": {"type": "Point", "coordinates": [-174.74199799306783, -67.25405350177887]}}, {"type": "Feature", "properties": {"norad_id": 35635, "name": "COSMOS 2454", "group": "musson", "lat": 5.239560584215364, "lon": -7.0090300417380105, "alt_km": 929.3486760051737, "timestamp": "2025-12-06T03:35:02.140665+00:00", "meta": {"OBJECT_NAME": "COSMOS 2454", "OBJECT_ID": "2009-039A", "EPOCH": "2025-12-05T06:50:36.858048", "MEAN_MOTION": 13.89927284, "ECCENTRICITY": 0.00205045, "INCLINATION": 82.9557, "RA_OF_ASC_NODE": 174.2958, "ARG_OF_PERICENTER": 93.6626, "MEAN_ANOMALY": 79.0444, "EPHEMERIS_TYPE": 0, "CLASSIFICATION_TYPE": "U", "NORAD_CAT_ID": 35635, "ELEMENT_SET_NO": 999, "REV_AT_EPOCH": 83046, "BSTAR": 9.0705287e-05, "MEAN_MOTION_DOT": 1.28e-06, "MEAN_MOTION_DDOT": 0}, "tle": {"line1": "1 35635U 09039A   25339.28514882  .00000128  00000+0  90705-4 0  9998", "line2": "2 35635  82.9557 174.2958 0020504  93.6626  79.0444 13.89927284830461"}}, "geometry": {"type": "Point", "coordinates": [-7.0090300417380105, 5.239560584215364]}}, {"type": "Feature", "properties": {"norad_id": 36519, "name": "COSMOS 2463", "group": "musson", "lat": -71.13135302231993, "lon": 10.365680059656013, "alt_km": 976.5943363332881, "timestamp": "2025-12-06T03:35:02.140676+00:00", "meta": {"OBJECT_NAME": "COSMOS 2463", "OBJECT_ID": "2010-017A", "EPOCH": "2025-12-05T07:15:54.953568", "MEAN_MOTION": 13.7164811, "ECCENTRICITY": 0.00350448, "INCLINATION": 82.9619, "RA_OF_ASC_NODE": 32.1774, "ARG_OF_PERICENTER": 309.3987, "MEAN_ANOMALY": 120.1637, "EPHEMERIS_TYPE": 0, "CLASSIFICATION_TYPE": "U", "NORAD_CAT_ID": 36519, "ELEMENT_SET_NO": 999, "REV_AT_EPOCH": 78135, "BSTAR": 8.7688532e-05, "MEAN_MOTION_DOT": 9.4e-07, "MEAN_MOTION_DDOT": 0}, "tle": {"line1": "1 36519U 10017A   25339.30271937  .00000094  00000+0  87689-4 0  9991", "line2": "2 36519  82.9619  32.1774 0035044 309.3987 120.1637 13.71648110781356"}}, "geometry": {"type": "Point", "coordinates": [10.365680059656013, -71.13135302231993]}}]}